{
  "type": "FeatureCollection",
  "features": [
    {
      "type": "Feature",
      "properties": {
        "norad_id": 66385,
        "name": "STARLINK-35659",
        "group": "last-30-days",
        "lat": NaN,
        "lon": NaN,
        "alt_km": NaN,
        "timestamp": "2025-12-01T02:46:51.393607+00:00",
        "meta": {
          "OBJECT_NAME": "STARLINK-35659",
          "OBJECT_ID": "2025-257F",
          "EPOCH": "2025-11-30T20:00:03.000384",
          "MEAN_MOTION": 15.49079419,
          "ECCENTRICITY": 0.0001209,
          "INCLINATION": 53.1594,
          "RA_OF_ASC_NODE": 320.7713,
          "ARG_OF_PERICENTER": 102.447,
          "MEAN_ANOMALY": 261.4356,
          "EPHEMERIS_TYPE": 0,
          "CLASSIFICATION_TYPE": "U",
          "NORAD_CAT_ID": 66385,
          "ELEMENT_SET_NO": 999,
          "REV_AT_EPOCH": 458,
          "BSTAR": -0.04157,
          "MEAN_MOTION_DOT": -0.02043221,
          "MEAN_MOTION_DDOT": 0
        }
      },
      "geometry": {
        "type": "Point",
        "coordinates": [
          NaN,
          NaN
        ]
      }
    },
    {
      "type": "Feature",
      "properties": {
        "norad_id": 66386,
        "name": "STARLINK-35651",
        "group": "last-30-days",
        "lat": NaN,
        "lon": NaN,
        "alt_km": NaN,
        "timestamp": "2025-12-01T02:46:51.393626+00:00",
        "meta": {
          "OBJECT_NAME": "STARLINK-35651",
          "OBJECT_ID": "2025-257G",
          "EPOCH": "2025-11-30T20:00:03.000384",
          "MEAN_MOTION": 15.49217613,
          "ECCENTRICITY": 0.0001493,
          "INCLINATION": 53.1596,
          "RA_OF_ASC_NODE": 320.7592,
          "ARG_OF_PERICENTER": 94.5559,
          "MEAN_ANOMALY": 275.1381,
          "EPHEMERIS_TYPE": 0,
          "CLASSIFICATION_TYPE": "U",
          "NORAD_CAT_ID": 66386,
          "ELEMENT_SET_NO": 999,
          "REV_AT_EPOCH": 458,
          "BSTAR": 0.0025845,
          "MEAN_MOTION_DOT": 0.00145532,
          "MEAN_MOTION_DDOT": 0
        }
      },
      "geometry": {
        "type": "Point",
        "coordinates": [
          NaN,
          NaN
        ]
      }
    },
    {
      "type": "Feature",
      "properties": {
        "norad_id": 66387,
        "name": "STARLINK-35661",
        "group": "last-30-days",
        "lat": NaN,
        "lon": NaN,
        "alt_km": NaN,
        "timestamp": "2025-12-01T02:46:51.393644+00:00",
        "meta": {
          "OBJECT_NAME": "STARLINK-35661",
          "OBJECT_ID": "2025-257H",
          "EPOCH": "2025-11-30T20:00:03.000384",
          "MEAN_MOTION": 15.49221417,
          "ECCENTRICITY": 0.0001219,
          "INCLINATION": 53.1596,
          "RA_OF_ASC_NODE": 320.7559,
          "ARG_OF_PERICENTER": 100.0846,
          "MEAN_ANOMALY": 271.5143,
          "EPHEMERIS_TYPE": 0,
          "CLASSIFICATION_TYPE": "U",
          "NORAD_CAT_ID": 66387,
          "ELEMENT_SET_NO": 999,
          "REV_AT_EPOCH": 458,
          "BSTAR": 0.0026801,
          "MEAN_MOTION_DOT": 0.00151057,
          "MEAN_MOTION_DDOT": 0
        }
      },
      "geometry": {
        "type": "Point",
        "coordinates": [
          NaN,
          NaN
        ]
      }
    },
    {
      "type": "Feature",
      "properties": {
        "norad_id": 66388,
        "name": "STARLINK-35647",
        "group": "last-30-days",
        "lat": NaN,
        "lon": NaN,
        "alt_km": NaN,
        "timestamp": "2025-12-01T02:46:51.393660+00:00",
        "meta": {
          "OBJECT_NAME": "STARLINK-35647",
          "OBJECT_ID": "2025-257J",
          "EPOCH": "2025-11-30T20:00:03.000384",
          "MEAN_MOTION": 15.49219307,
          "ECCENTRICITY": 0.0001277,
          "INCLINATION": 53.1595,
          "RA_OF_ASC_NODE": 320.7517,
          "ARG_OF_PERICENTER": 96.242,
          "MEAN_ANOMALY": 277.2768,
          "EPHEMERIS_TYPE": 0,
          "CLASSIFICATION_TYPE": "U",
          "NORAD_CAT_ID": 66388,
          "ELEMENT_SET_NO": 999,
          "REV_AT_EPOCH": 458,
          "BSTAR": 0.0027786,
          "MEAN_MOTION_DOT": 0.00156727,
          "MEAN_MOTION_DDOT": 0
        }
      },
      "geometry": {
        "type": "Point",
        "coordinates": [
          NaN,
          NaN
        ]
      }
    },
    {
      "type": "Feature",
      "properties": {
        "norad_id": 66389,
        "name": "STARLINK-35694",
        "group": "last-30-days",
        "lat": NaN,
        "lon": NaN,
        "alt_km": NaN,
        "timestamp": "2025-12-01T02:46:51.393677+00:00",
        "meta": {
          "OBJECT_NAME": "STARLINK-35694",
          "OBJECT_ID": "2025-257K",
          "EPOCH": "2025-11-30T20:00:03.000384",
          "MEAN_MOTION": 15.49297393,
          "ECCENTRICITY": 0.0001499,
          "INCLINATION": 53.1595,
          "RA_OF_ASC_NODE": 320.7466,
          "ARG_OF_PERICENTER": 96.1888,
          "MEAN_ANOMALY": 279.2339,
          "EPHEMERIS_TYPE": 0,
          "CLASSIFICATION_TYPE": "U",
          "NORAD_CAT_ID": 66389,
          "ELEMENT_SET_NO": 999,
          "REV_AT_EPOCH": 458,
          "BSTAR": -0.00012298,
          "MEAN_MOTION_DOT": -7.279e-05,
          "MEAN_MOTION_DDOT": 0
        }
      },
      "geometry": {
        "type": "Point",
        "coordinates": [
          NaN,
          NaN
        ]
      }
    },
    {
      "type": "Feature",
      "properties": {
        "norad_id": 66390,
        "name": "STARLINK-35665",
        "group": "last-30-days",
        "lat": NaN,
        "lon": NaN,
        "alt_km": NaN,
        "timestamp": "2025-12-01T02:46:51.393694+00:00",
        "meta": {
          "OBJECT_NAME": "STARLINK-35665",
          "OBJECT_ID": "2025-257L",
          "EPOCH": "2025-11-30T20:00:03.000384",
          "MEAN_MOTION": 15.49229892,
          "ECCENTRICITY": 0.0001647,
          "INCLINATION": 53.1594,
          "RA_OF_ASC_NODE": 320.6751,
          "ARG_OF_PERICENTER": 93.0775,
          "MEAN_ANOMALY": 316.8702,
          "EPHEMERIS_TYPE": 0,
          "CLASSIFICATION_TYPE": "U",
          "NORAD_CAT_ID": 66390,
          "ELEMENT_SET_NO": 999,
          "REV_AT_EPOCH": 468,
          "BSTAR": 0.0020393,
          "MEAN_MOTION_DOT": 0.00114325,
          "MEAN_MOTION_DDOT": 0
        }
      },
      "geometry": {
        "type": "Point",
        "coordinates": [
          NaN,
          NaN
        ]
      }
    },
    {
      "type": "Feature",
      "properties": {
        "norad_id": 66391,
        "name": "STARLINK-35656",
        "group": "last-30-days",
        "lat": NaN,
        "lon": NaN,
        "alt_km": NaN,
        "timestamp": "2025-12-01T02:46:51.393710+00:00",
        "meta": {
          "OBJECT_NAME": "STARLINK-35656",
          "OBJECT_ID": "2025-257M",
          "EPOCH": "2025-11-30T20:00:03.000384",
          "MEAN_MOTION": 15.42182721,
          "ECCENTRICITY": 0.0002041,
          "INCLINATION": 53.1584,
          "RA_OF_ASC_NODE": 320.4893,
          "ARG_OF_PERICENTER": 90.7272,
          "MEAN_ANOMALY": 47.6085,
          "EPHEMERIS_TYPE": 0,
          "CLASSIFICATION_TYPE": "U",
          "NORAD_CAT_ID": 66391,
          "ELEMENT_SET_NO": 999,
          "REV_AT_EPOCH": 468,
          "BSTAR": -0.055817,
          "MEAN_MOTION_DOT": -0.02147503,
          "MEAN_MOTION_DDOT": 0
        }
      },
      "geometry": {
        "type": "Point",
        "coordinates": [
          NaN,
          NaN
        ]
      }
    },
    {
      "type": "Feature",
      "properties": {
        "norad_id": 66392,
        "name": "STARLINK-35671",
        "group": "last-30-days",
        "lat": NaN,
        "lon": NaN,
        "alt_km": NaN,
        "timestamp": "2025-12-01T02:46:51.393726+00:00",
        "meta": {
          "OBJECT_NAME": "STARLINK-35671",
          "OBJECT_ID": "2025-257N",
          "EPOCH": "2025-11-30T20:00:03.000384",
          "MEAN_MOTION": 15.49216627,
          "ECCENTRICITY": 0.0001294,
          "INCLINATION": 53.1595,
          "RA_OF_ASC_NODE": 320.7395,
          "ARG_OF_PERICENTER": 96.9063,
          "MEAN_ANOMALY": 282.3682,
          "EPHEMERIS_TYPE": 0,
          "CLASSIFICATION_TYPE": "U",
          "NORAD_CAT_ID": 66392,
          "ELEMENT_SET_NO": 999,
          "REV_AT_EPOCH": 458,
          "BSTAR": 0.0028077,
          "MEAN_MOTION_DOT": 0.00158391,
          "MEAN_MOTION_DDOT": 0
        }
      },
      "geometry": {
        "type": "Point",
        "coordinates": [
          NaN,
          NaN
        ]
      }
    }
  ]
}